Model Marker Errors from IK
version=1
nRows=151
nColumns=4
inDegrees=no
endheader
time	total_squared_error	marker_error_RMS	marker_error_max
      0.00000000	      0.04168573	      0.03667016	      0.12546198
      0.01700000	      0.03977641	      0.03582053	      0.12114639
      0.03300000	      0.03832907	      0.03516279	      0.11667850
      0.05000000	      0.03696533	      0.03453158	      0.11192139
      0.06700000	      0.03696519	      0.03453152	      0.11030737
      0.08300000	      0.03647463	      0.03430162	      0.10897756
      0.10000000	      0.03638427	      0.03425910	      0.10862558
      0.11700000	      0.03634721	      0.03424165	      0.10934316
      0.13300000	      0.03539207	      0.03378875	      0.10835185
      0.15000000	      0.03433896	      0.03328225	      0.10817816
      0.16700000	      0.03353803	      0.03289182	      0.10767497
      0.18300000	      0.03301278	      0.03263324	      0.10757659
      0.20000000	      0.03271308	      0.03248477	      0.10674663
      0.21700000	      0.03269171	      0.03247416	      0.10573004
      0.23300000	      0.03375351	      0.03299732	      0.10678478
      0.25000000	      0.03530565	      0.03374747	      0.10838316
      0.26700000	      0.03557756	      0.03387718	      0.10804915
      0.28300000	      0.03616997	      0.03415806	      0.10754525
      0.30000000	      0.03637126	      0.03425298	      0.10826469
      0.31700000	      0.03612034	      0.03413462	      0.10789631
      0.33300000	      0.03527531	      0.03373297	      0.10683383
      0.35000000	      0.03508844	      0.03364350	      0.10691745
      0.36700000	      0.03553015	      0.03385460	      0.10840087
      0.38300000	      0.03642517	      0.03427835	      0.10997642
      0.40000000	      0.03717561	      0.03462966	      0.11112163
      0.41700000	      0.03790600	      0.03496819	      0.11081877
      0.43300000	      0.03839288	      0.03519204	      0.11146976
      0.45000000	      0.03943791	      0.03566778	      0.11250764
      0.46700000	      0.03972925	      0.03579929	      0.11403900
      0.48300000	      0.04004242	      0.03594010	      0.11599768
      0.50000000	      0.03975830	      0.03581237	      0.11676247
      0.51700000	      0.03979404	      0.03582846	      0.11877554
      0.53300000	      0.03948611	      0.03568957	      0.12013017
      0.55000000	      0.03914373	      0.03553450	      0.12140059
      0.56700000	      0.03928684	      0.03559940	      0.12138776
      0.58300000	      0.03951016	      0.03570044	      0.12227679
      0.60000000	      0.03957196	      0.03572835	      0.12061202
      0.61700000	      0.03954216	      0.03571489	      0.11966691
      0.63300000	      0.04008787	      0.03596050	      0.11973188
      0.65000000	      0.03971149	      0.03579128	      0.11899111
      0.66700000	      0.03858987	      0.03528221	      0.11751917
      0.68300000	      0.03821767	      0.03511165	      0.11518685
      0.70000000	      0.03829190	      0.03514573	      0.11404389
      0.71700000	      0.03825868	      0.03513049	      0.11236513
      0.73300000	      0.03785062	      0.03494263	      0.10919450
      0.75000000	      0.03732676	      0.03469999	      0.10811387
      0.76700000	      0.03619020	      0.03416761	      0.10501126
      0.78300000	      0.03455841	      0.03338843	      0.10304154
      0.80000000	      0.03362129	      0.03293263	      0.10296039
      0.81700000	      0.03319828	      0.03272480	      0.10494129
      0.83300000	      0.03300773	      0.03263074	      0.10601514
      0.85000000	      0.03365128	      0.03294731	      0.10726092
      0.86700000	      0.03446869	      0.03334506	      0.10810072
      0.88300000	      0.03491849	      0.03356193	      0.10905555
      0.90000000	      0.03480583	      0.03350774	      0.10880298
      0.91700000	      0.03484260	      0.03352544	      0.10972016
      0.93300000	      0.03475311	      0.03348236	      0.10958499
      0.95000000	      0.03462839	      0.03342222	      0.10952712
      0.96700000	      0.03473264	      0.03347249	      0.10818411
      0.98300000	      0.03552420	      0.03385177	      0.10912842
      1.00000000	      0.03596884	      0.03406296	      0.10895673
      1.01700000	      0.03668929	      0.03440241	      0.11009037
      1.03300000	      0.03742668	      0.03474640	      0.11057980
      1.05000000	      0.03827722	      0.03513899	      0.11139551
      1.06700000	      0.03888795	      0.03541822	      0.11372301
      1.08300000	      0.03961730	      0.03574881	      0.11367734
      1.10000000	      0.03969851	      0.03578543	      0.11534864
      1.11700000	      0.03950663	      0.03569885	      0.11612917
      1.13300000	      0.03923431	      0.03557559	      0.11719804
      1.15000000	      0.03904790	      0.03549098	      0.11883031
      1.16700000	      0.03883663	      0.03539484	      0.11839982
      1.18300000	      0.03929085	      0.03560122	      0.12003082
      1.20000000	      0.03879942	      0.03537788	      0.11858668
      1.21700000	      0.03918453	      0.03555302	      0.11884265
      1.23300000	      0.03903566	      0.03548542	      0.11809120
      1.25000000	      0.03842276	      0.03520574	      0.11584772
      1.26700000	      0.03777017	      0.03490548	      0.11360443
      1.28300000	      0.03713401	      0.03461028	      0.11028127
      1.30000000	      0.03636004	      0.03424770	      0.10760842
      1.31700000	      0.03614193	      0.03414482	      0.10573965
      1.33300000	      0.03560920	      0.03389224	      0.10410875
      1.35000000	      0.03547836	      0.03382992	      0.10317553
      1.36700000	      0.03529900	      0.03374430	      0.10476813
      1.38300000	      0.03421563	      0.03322243	      0.10292364
      1.40000000	      0.03281910	      0.03253737	      0.10129116
      1.41700000	      0.03199289	      0.03212520	      0.10013120
      1.43300000	      0.03178378	      0.03202004	      0.10087986
      1.45000000	      0.03178861	      0.03202248	      0.10222422
      1.46700000	      0.03163385	      0.03194443	      0.10370283
      1.48300000	      0.03253641	      0.03239694	      0.10524188
      1.50000000	      0.03239203	      0.03232498	      0.10585390
      1.51700000	      0.03267635	      0.03246653	      0.10650778
      1.53300000	      0.03291689	      0.03258581	      0.10733186
      1.55000000	      0.03246501	      0.03236137	      0.10736235
      1.56700000	      0.03274613	      0.03250118	      0.10827012
      1.58300000	      0.03274166	      0.03249896	      0.10876751
      1.60000000	      0.03283515	      0.03254533	      0.10902063
      1.61700000	      0.03306500	      0.03265904	      0.11006663
      1.63300000	      0.03265080	      0.03245384	      0.10929476
      1.65000000	      0.03253525	      0.03239636	      0.10966372
      1.66700000	      0.03290803	      0.03258142	      0.11012121
      1.68300000	      0.03327557	      0.03276287	      0.11099799
      1.70000000	      0.03316173	      0.03270678	      0.11099606
      1.71700000	      0.03336881	      0.03280874	      0.11359961
      1.73300000	      0.03187540	      0.03206616	      0.11513408
      1.75000000	      0.03076476	      0.03150257	      0.11736505
      1.76700000	      0.03031822	      0.03127310	      0.11957248
      1.78300000	      0.03024136	      0.03123344	      0.12159847
      1.80000000	      0.03022096	      0.03122290	      0.12274786
      1.81700000	      0.03079978	      0.03152049	      0.12485819
      1.83300000	      0.03080608	      0.03152371	      0.12551206
      1.85000000	      0.03035770	      0.03129346	      0.12406416
      1.86700000	      0.03021250	      0.03121854	      0.12264611
      1.88300000	      0.02956863	      0.03088409	      0.12085568
      1.90000000	      0.02883635	      0.03049926	      0.11801239
      1.91700000	      0.02880870	      0.03048463	      0.11657212
      1.93300000	      0.02867300	      0.03041275	      0.11422190
      1.95000000	      0.02885214	      0.03050761	      0.11302695
      1.96700000	      0.02866905	      0.03041066	      0.11167699
      1.98300000	      0.02848153	      0.03031104	      0.11053055
      2.00000000	      0.02743853	      0.02975086	      0.10824073
      2.01700000	      0.02620298	      0.02907331	      0.10458671
      2.03300000	      0.02512811	      0.02847076	      0.10166474
      2.05000000	      0.02426750	      0.02797897	      0.09842032
      2.06700000	      0.02446533	      0.02809278	      0.09686030
      2.08300000	      0.02380309	      0.02770996	      0.09444394
      2.10000000	      0.02371373	      0.02765789	      0.09455559
      2.11700000	      0.02406182	      0.02786014	      0.09609959
      2.13300000	      0.02409580	      0.02787981	      0.09638474
      2.15000000	      0.02425299	      0.02797060	      0.09684235
      2.16700000	      0.02430879	      0.02800276	      0.09777488
      2.18300000	      0.02458359	      0.02816059	      0.09784106
      2.20000000	      0.02445976	      0.02808958	      0.09805546
      2.21700000	      0.02488396	      0.02833211	      0.09857476
      2.23300000	      0.02521483	      0.02851985	      0.09931292
      2.25000000	      0.02542350	      0.02863762	      0.10047287
      2.26700000	      0.02598695	      0.02895322	      0.10182022
      2.28300000	      0.02611726	      0.02902572	      0.10219426
      2.30000000	      0.02671263	      0.02935469	      0.10384982
      2.31700000	      0.02639793	      0.02918126	      0.10584911
      2.33300000	      0.02604007	      0.02898280	      0.10696645
      2.35000000	      0.02578808	      0.02884222	      0.10916820
      2.36700000	      0.02597000	      0.02894377	      0.11154072
      2.38300000	      0.02563554	      0.02875679	      0.11197714
      2.40000000	      0.02606705	      0.02899780	      0.11448584
      2.41700000	      0.02654495	      0.02926241	      0.11575811
      2.43300000	      0.02667116	      0.02933189	      0.11595604
      2.45000000	      0.02672758	      0.02936290	      0.11573264
      2.46700000	      0.02604078	      0.02898319	      0.11352935
      2.48300000	      0.02541400	      0.02863226	      0.11129101
      2.50000000	      0.02493307	      0.02836005	      0.10841464
