Coordinates
version=1
nRows=73
nColumns=17
inDegrees=yes

Units are S.I. units (second, meters, Newtons, ...)
If the header above contains a line with 'inDegrees', this indicates whether rotational values are in degrees (yes) or radians (no).

endheader
time	pelvis_list	pelvis_rotation	pelvis_tilt	pelvis_tx	pelvis_ty	pelvis_tz	hip_adduction_r	hip_rotation_r	hip_flexion_r	hip_adduction_l	hip_rotation_l	hip_flexion_l	knee_flexion_r	knee_flexion_l	ankle_dorsiflexion_r	ankle_dorsiflexion_l
      0.40000000	     -1.88409352	     -1.28338741	     -2.32610424	      0.60239635	      1.03534297	     -0.02111806	      0.56366302	     -6.82942968	     27.95804304	     -1.16273384	      1.86014041	      2.59975872	    -53.84874677	     -9.76461854	     -0.13981476	      6.05107617
      0.41700000	     -1.73196629	     -1.12834997	     -2.48877970	      0.59966489	      1.03435087	     -0.02248692	      0.64905736	     -7.35755404	     28.53725387	     -1.38539500	      1.75846332	      1.35344974	    -49.00203575	     -8.95377853	     -0.09616178	      6.41260606
      0.43300000	     -1.49941289	     -1.13634938	     -2.60073024	      0.59739845	      1.03289148	     -0.02270775	      0.77265784	     -8.02738932	     28.79126898	     -1.64413186	      1.88655540	      0.01542576	    -43.61854874	     -8.13719479	     -0.19507420	      6.84596025
      0.45000000	     -1.15146302	     -0.97251621	     -2.59064073	      0.59530250	      1.03116415	     -0.02303996	      0.85551699	     -8.97377230	     28.66773411	     -2.00388169	      1.84077432	     -1.36791165	    -37.80209900	     -7.48757555	     -0.46417389	      7.36086308
      0.46700000	     -0.67667689	     -0.83940547	     -2.70317673	      0.59288163	      1.02869087	     -0.02324318	      0.90722492	     -9.83929611	     28.53180875	     -2.49265376	      1.83331844	     -2.50038313	    -31.69283456	     -7.05160534	     -0.86022169	      7.97040933
      0.48300000	     -0.40480641	     -0.37232708	     -2.72483704	      0.59167262	      1.02631210	     -0.02303784	      1.19848372	    -10.76481046	     27.91374536	     -2.68018712	      1.48088468	     -3.97787178	    -25.20462606	     -6.26109772	     -1.24086560	      8.45124689
      0.50000000	     -0.08227512	     -0.28891391	     -2.71618632	      0.59088067	      1.02342666	     -0.02183669	      1.29935482	    -10.81455516	     27.17960451	     -2.89887276	      1.54456741	     -5.51958821	    -18.83204123	     -5.52457548	     -1.49359941	      8.99156438
      0.51700000	      0.37562872	     -0.13102984	     -2.73858935	      0.58978133	      1.01998363	     -0.02123347	      0.98015066	    -10.38565725	     26.54130268	     -3.28728946	      1.49973421	     -6.91447822	    -12.99579004	     -4.98544638	     -1.45366218	      9.56360052
      0.53300000	      0.80087022	      0.23940139	     -2.77534993	      0.58888280	      1.01623101	     -0.02086144	      0.42996266	     -9.73849266	     25.94433350	     -3.62280554	      1.20412414	     -8.17067874	     -7.87456376	     -4.71744168	     -1.07104291	     10.23995972
      0.55000000	      1.25761578	      0.19441140	     -2.75133434	      0.58855459	      1.01248311	     -0.02009236	     -0.36266894	     -8.53536924	     25.39814109	     -4.01132998	      1.29711910	     -9.60667423	     -3.68077996	     -4.29929413	     -0.47960552	     10.77286793
      0.56700000	      1.59377291	      0.22047333	     -2.77562187	      0.58772999	      1.00870397	     -0.01943446	     -1.06608632	     -7.43796868	     25.27526438	     -4.26847782	      1.26357506	    -10.71008064	     -1.00065126	     -4.40222442	      0.24508395	     11.45875479
      0.58300000	      1.89056144	      0.88936322	     -3.02180079	      0.58595840	      1.00505023	     -0.01921995	     -1.52020085	     -7.30592898	     25.60608084	     -4.41625077	      0.57674466	    -11.00346001	      0.31069405	     -5.53771625	      0.68966745	     12.39881105
      0.60000000	      1.96853148	      0.92923887	     -2.93218802	      0.58665279	      1.00239860	     -0.01731853	     -1.62680646	     -6.81504398	     25.75509275	     -4.29533380	      0.46401487	    -12.09138723	      0.14537708	     -6.05458451	      0.94509454	     12.88531558
      0.61700000	      1.88969853	      1.17145953	     -3.02362827	      0.58711077	      0.99989395	     -0.01483506	     -1.40001809	     -6.66848794	     26.42101284	     -3.93663242	      0.13333206	    -12.57941083	     -1.51081659	     -7.31519678	      0.62805500	     13.50041617
      0.63300000	      1.93836384	      1.66847376	     -3.05326287	      0.58800417	      0.99816025	     -0.01234665	     -1.27204966	     -6.83625384	     27.09290667	     -3.70226018	     -0.54559163	    -13.00187518	     -4.04807285	     -8.78923014	     -0.17727526	     13.83790939
      0.65000000	      1.89009387	      2.10581997	     -3.11529669	      0.58935760	      0.99677388	     -0.00921974	     -1.01016066	     -6.97352653	     27.79424586	     -3.37377459	     -1.26662752	    -13.27674031	     -6.97826174	    -10.48031896	     -1.36974492	     13.99652137
      0.66700000	      1.95456438	      2.46405700	     -3.16235342	      0.59114290	      0.99614145	     -0.00657711	     -0.97794317	     -7.01122038	     28.36005172	     -3.26773148	     -2.01329983	    -13.39049411	     -9.92162594	    -12.49554586	     -2.61201922	     13.77779566
      0.68300000	      2.02111742	      2.59375531	     -3.09944057	      0.59265464	      0.99617743	     -0.00366867	     -1.00985068	     -6.83099046	     28.94200138	     -3.22173950	     -2.58582656	    -13.25295646	    -13.21947859	    -15.12866873	     -3.39622910	     13.23036377
      0.70000000	      1.93350812	      2.85308624	     -2.93322895	      0.59587553	      0.99722916	     -0.00113152	     -0.95862233	     -6.75497757	     29.15800096	     -3.03660874	     -3.27121361	    -12.99888551	    -16.41149898	    -18.20594216	     -3.52851323	     12.10509080
      0.71700000	      1.92612549	      3.03172385	     -2.73029978	      0.59873413	      0.99882205	      0.00139315	     -1.02025596	     -6.67526109	     28.91606345	     -2.93125088	     -3.76560914	    -12.20673787	    -18.87056161	    -22.14549938	     -3.38742666	     10.45015303
      0.73300000	      1.89940682	      3.15265724	     -2.61419048	      0.60090187	      1.00029314	      0.00451201	     -0.97293595	     -6.67166702	     28.63050209	     -2.68263361	     -3.92341287	    -10.40993141	    -21.04228459	    -27.48588989	     -2.93166444	      8.31808174
      0.75000000	      1.84206474	      3.14812992	     -2.45806191	      0.60355413	      1.00227956	      0.00763027	     -0.85250389	     -6.72710846	     27.87314554	     -2.30122210	     -3.60277536	     -8.30008802	    -22.52328383	    -33.07393058	     -2.14646795	      5.19225107
      0.76700000	      1.78984051	      3.17871218	     -2.42608666	      0.60551188	      1.00420834	      0.01046351	     -0.71207523	     -6.84744110	     27.09488877	     -1.74962434	     -2.85499683	     -5.47335878	    -23.70846500	    -39.11808058	     -1.02739174	      1.28937867
      0.78300000	      1.58774503	      3.17089584	     -2.44675898	      0.60609520	      1.00614876	      0.01377529	     -0.35293808	     -6.92346867	     26.14241174	     -0.91087536	     -1.76668763	     -2.26503023	    -24.28106786	    -45.02629015	      0.05877095	     -2.88221202
      0.80000000	      1.27195687	      2.99421221	     -2.41903348	      0.60660454	      1.00812581	      0.01723727	      0.11151532	     -6.77648229	     25.08062068	      0.12542586	     -0.22999662	      0.94966244	    -24.72281741	    -50.49324708	      1.28711223	     -6.57179594
      0.81700000	      0.88260993	      2.95782421	     -2.29639794	      0.60680545	      1.01075521	      0.02093582	      0.67020836	     -6.76838809	     23.57171243	      1.22149892	      1.13389700	      3.87297041	    -24.48302455	    -55.12151685	      2.36364096	     -8.91143137
      0.83300000	      0.62726642	      2.93842338	     -2.24754480	      0.60654497	      1.01363542	      0.02424603	      1.06479675	     -6.74522457	     22.08815227	      2.05536646	      2.38185001	      6.75928369	    -24.09026215	    -59.07185110	      3.31882733	     -9.70363432
      0.85000000	      0.36546265	      2.77429699	     -2.22014488	      0.60613936	      1.01675328	      0.02754334	      1.45889666	     -6.60436502	     20.42444368	      2.69400569	      3.51405549	      9.50569564	    -23.24538113	    -62.29268356	      4.05509987	     -9.18558739
      0.86700000	      0.25488293	      2.58755408	     -2.07001955	      0.60575780	      1.02010801	      0.03050372	      1.64710175	     -6.46053874	     18.63239819	      2.97590559	      4.43076753	     11.92397661	    -22.41732205	    -64.68302622	      4.73370411	     -7.96065565
      0.88300000	      0.22550470	      2.45953880	     -2.05996089	      0.60477616	      1.02332963	      0.03313707	      1.75856866	     -6.39566476	     16.81167462	      2.93837000	      4.95273845	     14.41539897	    -21.15374333	    -66.32774325	      5.22252973	     -6.60071351
      0.90000000	      0.21308093	      2.17223682	     -1.96138228	      0.60404498	      1.02638489	      0.03556109	      1.80545726	     -6.14910797	     14.90946178	      2.70548335	      5.27292924	     16.60530784	    -19.92272167	    -67.18466053	      5.66409349	     -5.31732950
      0.91700000	      0.26074966	      1.97813846	     -1.90441200	      0.60276719	      1.02903645	      0.03750344	      1.77159879	     -5.98991104	     13.07243321	      2.28896917	      5.21836336	     18.69237165	    -18.65356565	    -67.25338175	      6.02910154	     -4.20325274
      0.93300000	      0.32717600	      1.76561147	     -1.87421022	      0.60178831	      1.03148044	      0.03918540	      1.70410168	     -5.87448407	     11.16647529	      1.79792379	      4.87739091	     20.54767460	    -17.20792151	    -66.47308288	      6.29721550	     -3.31091920
      0.95000000	      0.46996043	      1.06146411	     -1.98450361	      0.59935646	      1.03274724	      0.04121525	      1.54246698	     -5.22101423	      9.86742162	      1.21008231	      4.91557913	     22.41262188	    -16.40250119	    -65.05995204	      6.71102939	     -2.54778734
      0.96700000	      0.52577145	      0.70428158	     -2.09656240	      0.59720536	      1.03364905	      0.04252565	      1.46463764	     -4.94071441	      8.47908129	      0.78561768	      4.70027470	     24.07566757	    -15.46688694	    -62.93190120	      7.07352965	     -1.92768482
      0.98300000	      0.53657362	      0.30226046	     -1.95986147	      0.59653109	      1.03476649	      0.04392822	      1.41634151	     -4.70584139	      6.60468925	      0.51603773	      4.71067698	     25.03411089	    -14.27437207	    -59.96849857	      7.36229222	     -1.31226590
      1.00000000	      0.56237682	      0.08404901	     -2.06173300	      0.59396065	      1.03497089	      0.04498433	      1.38684140	     -4.58851276	      5.38431278	      0.25017269	      4.77047578	     26.18063985	    -13.64210050	    -56.40626324	      7.78584403	     -0.93340400
      1.01700000	      0.47819775	     -0.16598889	     -2.06428932	      0.59205992	      1.03488191	      0.04610238	      1.46819011	     -4.48911108	      3.99828656	      0.12672230	      5.21346989	     26.87957576	    -12.98018760	    -52.18829937	      8.25348726	     -0.68828898
      1.03300000	      0.29446765	     -0.35505401	     -2.12246684	      0.59007472	      1.03437757	      0.04731992	      1.66926264	     -4.47588005	      2.59381857	      0.06927988	      6.01956442	     27.41312970	    -12.17157540	    -47.41947354	      8.66040035	     -0.75538065
      1.05000000	      0.04282673	     -0.51161839	     -2.13769628	      0.58813623	      1.03366188	      0.04807988	      1.90152389	     -4.50589492	      1.18922822	     -0.03673976	      7.09326913	     27.65104841	    -11.47299609	    -42.11148665	      9.07447932	     -1.13838733
      1.06700000	     -0.33902437	     -0.84571915	     -2.18523954	      0.58607059	      1.03218021	      0.04901343	      2.25538715	     -4.33396771	     -0.09664762	     -0.13497793	      8.50252118	     27.76355260	    -10.92932413	    -36.52135120	      9.57580486	     -1.69041267
      1.08300000	     -0.66066209	     -1.13268036	     -2.28152386	      0.58441102	      1.03031244	      0.04935142	      2.49902901	     -4.05680454	     -1.40590121	     -0.42077313	      9.76768950	     27.70879787	    -10.31155648	    -30.62009066	     10.07189142	     -2.40782423
      1.10000000	     -1.09643627	     -1.43785798	     -2.30445346	      0.58326604	      1.02806014	      0.04997272	      2.86714998	     -3.78224892	     -2.90978778	     -0.55201510	     10.76467103	     27.53818470	     -9.55971217	    -24.90660614	     10.52445275	     -2.98595905
      1.11700000	     -1.47792791	     -1.73829951	     -2.40011033	      0.58212363	      1.02533952	      0.05033083	      3.17987678	     -3.38745126	     -4.20651554	     -0.60854364	     11.12324099	     27.30622878	     -9.10138950	    -19.26022531	     11.10812581	     -3.38399414
      1.13300000	     -1.94445132	     -2.26835852	     -2.47810205	      0.58070762	      1.02226358	      0.05044533	      3.53983351	     -2.77208438	     -5.36687925	     -0.34348376	     11.07111789	     27.07494912	     -8.93152137	    -14.13820081	     11.76805806	     -3.41216310
      1.15000000	     -2.32270871	     -2.55399784	     -2.40504820	      0.58008023	      1.01934718	      0.05010418	      3.79874921	     -2.39960135	     -6.76000984	      0.17239935	     10.20708782	     26.49154765	     -8.69571712	     -9.31785722	     12.37935697	     -3.20785101
      1.16700000	     -2.65907518	     -2.94859086	     -2.46982323	      0.57974134	      1.01605617	      0.05005007	      4.00648195	     -2.03985685	     -8.05526614	      0.80849681	      9.23454317	     26.18465536	     -8.40722583	     -5.50607265	     12.90682525	     -2.66764251
      1.18300000	     -2.93065505	     -3.49458746	     -2.40384371	      0.57919252	      1.01312310	      0.04967528	      4.07366809	     -1.59255351	     -9.20352271	      1.40798545	      8.43913723	     25.85712166	     -8.65630082	     -2.75467717	     13.51091554	     -2.01842160
      1.20000000	     -3.11227008	     -3.77857137	     -2.46502345	      0.57943257	      1.01018319	      0.04922114	      4.07362926	     -1.37529629	    -10.34735335	      1.84625092	      7.60906351	     25.77400165	     -8.70113902	     -1.13688062	     13.89154703	     -1.44976923
      1.21700000	     -3.26499617	     -4.02859287	     -2.45284271	      0.57898709	      1.00775849	      0.04839525	      4.02343465	     -1.14501539	    -11.13472805	      2.18582242	      6.91069660	     25.97089329	     -9.50543258	     -1.09325700	     14.36210056	     -1.07080941
      1.23300000	     -3.32655903	     -4.37283904	     -2.43638616	      0.57917057	      1.00573306	      0.04734135	      3.87352045	     -0.70085881	    -11.79955997	      2.36686922	      6.40613890	     26.20787555	    -10.56294509	     -2.11521912	     14.73084200	     -1.06991546
      1.25000000	     -3.25421770	     -4.90566818	     -2.39305045	      0.58056205	      1.00428302	      0.04556231	      3.52037068	     -0.02801186	    -12.43064368	      2.34033219	      6.09846056	     26.36190084	    -11.82260633	     -3.90435287	     14.89088088	     -1.48571356
      1.26700000	     -3.16838139	     -4.91151057	     -2.33405941	      0.58258839	      1.00303838	      0.04356102	      3.22366602	      0.18112419	    -12.91596183	      2.32621494	      5.34367217	     26.64054406	    -13.43050314	     -6.30889278	     14.93015703	     -2.33066667
      1.28300000	     -3.35791133	     -5.09990966	     -2.48714520	      0.58338826	      1.00197835	      0.04210512	      3.24032718	      0.56488344	    -12.68562419	      2.56300936	      4.93924881	     27.08674482	    -15.83367626	     -8.70911698	     14.74172074	     -3.53480966
      1.30000000	     -3.40333118	     -5.28771142	     -2.47206086	      0.58572149	      1.00181843	      0.04038601	      3.08356756	      0.93669634	    -12.72651392	      2.60595101	      4.68451923	     27.30261064	    -18.07096697	    -11.26354736	     13.98193420	     -4.41043676
      1.31700000	     -3.33600184	     -5.43793097	     -2.32606578	      0.58857053	      1.00238913	      0.03842025	      2.81610332	      1.29132376	    -12.36435801	      2.48718076	      4.54169683	     27.25793271	    -21.25008360	    -13.69316014	     12.86978044	     -4.92709762
      1.33300000	     -3.27576045	     -5.46798941	     -2.11028100	      0.59162215	      1.00351245	      0.03627497	      2.53559734	      1.42314804	    -11.59782074	      2.35717997	      4.40614613	     26.99715124	    -25.14983480	    -15.95366696	     11.14668564	     -4.99911637
      1.35000000	     -3.13919576	     -5.35181534	     -1.73769464	      0.59490795	      1.00535658	      0.03363931	      2.07772355	      1.14701381	    -10.47638577	      2.14093612	      4.18809714	     26.33631568	    -29.71808313	    -17.86490567	      8.53779192	     -4.69806202
      1.36700000	     -2.96502984	     -5.08715983	     -1.45223088	      0.59795296	      1.00727020	      0.03035586	      1.42945153	      0.41884720	     -8.67269155	      1.82412806	      3.95345248	     25.53383374	    -34.92983939	    -19.35047273	      4.91343993	     -4.09908354
      1.38300000	     -2.75430059	     -4.86078371	     -1.27558054	      0.60035531	      1.00912299	      0.02684219	      0.58514697	     -0.60731624	     -6.20218159	      1.43209163	      3.82304451	     24.62900219	    -40.52841881	    -20.43375051	      0.43423851	     -3.22585439
      1.40000000	     -2.54859839	     -4.64790170	     -1.12158051	      0.60200585	      1.01110270	      0.02354828	     -0.26832274	     -1.73466761	     -3.41897271	      1.04646656	      3.72770557	     23.60486476	    -45.95381580	    -21.22464778	     -4.41465447	     -2.14995202
      1.41700000	     -2.31531340	     -4.49732390	     -0.98032129	      0.60331092	      1.01367466	      0.02009283	     -1.14221821	     -2.81886963	     -0.57628793	      0.60177876	      3.68573078	     22.24917991	    -50.81467900	    -21.35089309	     -8.67758768	     -1.12321190
      1.43300000	     -1.98728693	     -4.58845844	     -0.93328363	      0.60307556	      1.01597163	      0.01690763	     -2.00688221	     -3.53602394	      2.56927845	      0.04305680	      3.85355885	     20.94140740	    -55.46965739	    -21.23350210	    -11.18840699	     -0.14675443
      1.45000000	     -1.68243312	     -4.70382606	     -0.80066933	      0.60260215	      1.01868570	      0.01362361	     -2.74647583	     -4.08610057	      5.50143450	     -0.49748811	      4.02975679	     19.44122899	    -59.52297204	    -20.90368729	    -11.69618017	      0.75890528
      1.46700000	     -1.64421380	     -4.24872286	     -0.71100127	      0.60309222	      1.02201415	      0.01016695	     -3.01752688	     -5.04282343	      8.00321991	     -0.71700862	      3.67413735	     17.77000698	    -62.58249621	    -20.21519691	    -10.68076457	      1.52030132
      1.48300000	     -1.53222172	     -4.03752541	     -0.56470786	      0.60226706	      1.02530675	      0.00741156	     -3.17268685	     -5.55496210	     10.54937182	     -0.97903437	      3.52450876	     15.92683680	    -65.18775373	    -19.16496341	     -8.83567376	      2.06340493
      1.50000000	     -1.53385960	     -3.58256712	     -0.59695822	      0.60121292	      1.02791366	      0.00463843	     -3.01404409	     -6.12225325	     13.10628362	     -1.11222023	      3.11175968	     14.42881428	    -67.01821576	    -18.36492913	     -6.82348278	      2.67145160
      1.51700000	     -1.59588785	     -2.98763274	     -0.55929082	      0.59998585	      1.03049106	      0.00217506	     -2.65738578	     -6.69572671	     15.39939851	     -1.14198040	      2.54315954	     12.68743891	    -67.99924797	    -17.18429241	     -5.04000725	      3.09887494
      1.53300000	     -1.63903861	     -2.49811333	     -0.54161927	      0.59882232	      1.03272472	     -0.00016029	     -2.22093833	     -6.95905728	     17.56802687	     -1.20495021	      2.10580170	     10.90437091	    -68.19644265	    -15.89433279	     -3.66563399	      3.48412037
      1.55000000	     -1.60841709	     -2.10925307	     -0.70082312	      0.59649712	      1.03381649	     -0.00209428	     -1.78195379	     -7.07016032	     19.93980264	     -1.34459927	      1.82659951	      9.56115322	    -67.83873853	    -14.96687162	     -2.63264983	      3.96280132
      1.56700000	     -1.74576856	     -1.38601167	     -0.70161934	      0.59516536	      1.03513350	     -0.00403729	     -1.16129022	     -7.46641346	     21.68351313	     -1.25986089	      1.19992123	      7.91730696	    -66.45915856	    -13.86311809	     -1.90437386	      4.41318688
      1.58300000	     -1.79656963	     -0.95201730	     -0.78207348	      0.59317689	      1.03567197	     -0.00549174	     -0.64517953	     -7.59540359	     23.44576401	     -1.25935003	      0.85537537	      6.51952683	    -64.48934169	    -13.03072662	     -1.38897145	      4.97455009
      1.60000000	     -1.82548315	     -0.70221677	     -0.79898344	      0.59202714	      1.03604932	     -0.00668546	     -0.20815778	     -7.55008447	     24.82269826	     -1.27433819	      0.65396615	      4.84244558	    -61.74174800	    -11.89005399	     -0.98816880	      5.45913258
