Inverse Dynamics Generalized Forces
version=1
nRows=76
nColumns=17
inDegrees=no
endheader
time	pelvis_list_moment	pelvis_rotation_moment	pelvis_tilt_moment	pelvis_tx_force	pelvis_ty_force	pelvis_tz_force	hip_adduction_r_moment	hip_rotation_r_moment	hip_flexion_r_moment	hip_adduction_l_moment	hip_rotation_l_moment	hip_flexion_l_moment	knee_flexion_r_moment	knee_flexion_l_moment	ankle_dorsiflexion_r_moment	ankle_dorsiflexion_l_moment
      0.39800000	     39.96838258	      1.40053991	    -22.68802577	     14.77818374	     -7.03680557	     93.08565729	    -12.91069513	     -5.40161946	      3.94423635	     46.34149186	      1.54308671	     -8.91193392	     -1.25875834	    -17.35196041	      0.88109819	    -65.71708383
      0.41400000	     41.52185662	      5.80690044	    -22.58812882	     21.57655624	     -8.42988269	    107.32482044	    -11.91937996	     -4.62354747	      5.37666431	     44.94832667	      1.36693852	     -8.59064566	     -1.77785761	    -20.05216494	      0.99022345	    -68.55171392
      0.43000000	     40.53790416	      8.36021069	    -21.45954294	     26.31500773	     -9.45183221	    103.11052800	     -9.31560329	     -3.02374054	      6.37723889	     44.29751470	      1.40353104	     -7.54164856	     -2.50689871	    -22.63211781	      1.10656906	    -72.12525623
      0.44600000	     37.39700156	      8.36779234	    -20.62656243	     26.44316517	     -8.97551298	     81.45523453	     -5.79686363	     -1.02471071	      6.71877590	     45.27576400	      1.27340925	     -6.44925481	     -3.45735795	    -25.01972870	      1.21765114	    -75.52460910
      0.46200000	     31.04416859	      5.90132819	    -21.43915023	     20.09420902	     -7.30962788	     48.42567126	     -2.23950657	      0.84608562	      6.23915561	     46.76850229	      0.68982770	     -6.34349688	     -4.59463429	    -27.78441633	      1.29854170	    -78.75702128
      0.47800000	     22.61121669	      1.62092819	    -21.83795225	      9.78281896	     -4.29231797	     10.72025111	      0.58200217	      2.13265081	      4.65115448	     49.21393780	     -0.16263738	     -4.78070921	     -5.94347792	    -29.74426854	      1.31134765	    -81.63743574
      0.49400000	     13.18049398	     -2.91780225	    -23.75875120	     -3.07099065	      0.21825791	    -25.25754421	      2.16588200	      2.55875086	      1.66079051	     52.85804735	     -0.59188627	     -2.81812383	     -7.61860035	    -31.80701568	      1.21688927	    -84.94585683
      0.51000000	      1.42363801	     -6.91038158	    -28.60111951	    -16.11814901	      4.50745450	    -51.96801657	      2.32349899	      2.06182607	     -2.57124384	     55.85002061	     -1.03510423	     -1.49644962	     -9.69106088	    -34.31719026	      0.99654094	    -88.71004893
      0.52600000	    -11.75245387	    -10.05187393	    -32.52035816	    -22.56227327	      8.12452196	    -65.45350070	      1.16430958	      0.78967049	     -7.06723311	     57.82554102	     -1.99480554	      2.15380074	    -11.97046809	    -35.17451154	      0.67105996	    -92.05444838
      0.54200000	    -23.63741073	    -11.76946430	    -35.12724963	    -20.26399110	     13.58668311	    -65.04481169	     -0.91874198	     -0.92889051	    -10.31931313	     59.18721517	     -3.34895089	      6.99236548	    -13.94999067	    -34.75249541	      0.30232288	    -95.04406291
      0.55800000	    -31.73099704	    -11.47428462	    -39.25285561	    -12.70149732	     20.45345041	    -52.87100722	     -3.31000668	     -2.65763357	    -11.17501895	     60.28702571	     -4.36938813	      8.41305427	    -15.03643033	    -36.28519238	     -0.02520506	   -100.10017754
      0.57400000	    -35.49845484	     -9.95087263	    -41.45940908	     -3.31747284	     30.31269408	    -32.87233201	     -5.34471562	     -3.97019497	     -9.50864548	     60.14537281	     -5.43092154	      8.65800601	    -14.86238806	    -37.83772740	     -0.23326556	   -105.70858794
      0.59000000	    -35.71604638	     -8.02003725	    -38.01915720	      2.60835565	     44.74442573	    -11.47876271	     -6.55903185	     -4.58913052	     -6.06842231	     57.81928650	     -6.68145667	     11.20445434	    -13.42233124	    -36.21237041	     -0.27542883	   -108.67817450
      0.60600000	    -33.61241048	     -6.25945716	    -27.04605078	      4.10428874	     55.20726994	      3.33855996	     -7.64702638	     -4.39002008	      0.37060495	     54.32310974	     -7.90843867	     15.20852918	     -9.21073865	    -32.77219704	      1.24324017	   -110.42194394
      0.62200000	    -27.53987610	     -7.51104905	    -22.55250893	     -6.60290460	     49.14920203	      5.64929004	     -7.48519216	     -4.38855771	     -5.53397837	     51.82856610	     -8.70316060	     21.30790863	    -10.84681549	    -27.71089637	      1.73869999	   -111.13271201
      0.63800000	    -14.21205967	    -11.04789321	    -34.34907086	    -29.81502806	      7.76191520	     -6.39455560	     -0.53589182	     -3.39522987	    -31.06882751	     47.84389922	     -9.24562769	     25.84873054	    -20.56956086	    -22.46156208	      2.33710469	   -109.29095491
      0.65400000	      7.11547496	     -9.90218695	    -37.64685179	    -35.78938215	    -50.26598827	    -33.47846259	     16.72436656	      2.32164910	    -48.17170982	     40.86972890	     -8.95252966	     26.39076714	    -22.93336905	    -20.71468409	      4.77873244	   -109.43569646
      0.67000000	     17.06667212	     -7.46386906	    -17.36558414	    -17.38368848	    -71.24907408	    -53.74499753	     25.69478655	      6.57070763	    -41.41778923	     32.82956630	     -8.25031354	     30.02551361	    -11.18147423	    -15.89734076	      8.76319839	   -104.45932472
      0.68600000	     13.71864526	     -7.83902702	     -8.11354076	     -6.45969952	    -51.69911004	    -57.71086945	     24.14139104	      6.00857800	    -38.37653299	     23.76480967	     -6.23680723	     33.46390246	     -1.42755643	     -8.18286448	     10.66308839	    -90.65195197
      0.70200000	      5.65512643	     -7.93123087	     -5.08932659	      8.09866115	    -24.08258568	    -51.39360646	     18.67834495	      4.25118249	    -39.98772303	     13.27593708	     -3.19118720	     38.21389615	      6.77789656	     -0.03812233	     11.27317563	    -73.97675321
      0.71800000	     -2.15760531	     -8.85845852	     -4.18972896	     23.57326722	     -8.31443569	    -40.46830118	     10.80585469	      1.28913909	    -43.65925548	      3.78251355	     -0.72364412	     42.68797911	     16.02794728	      8.03083655	     11.87027197	    -54.08824941
      0.73400000	     -4.37863642	    -10.32771922	    -12.73906100	     28.11720824	    -15.92499474	    -31.80590033	      2.19986085	     -2.21308891	    -51.93116119	     -0.69374703	      1.26712545	     40.09039809	     24.05208394	     10.90370231	     10.66557687	    -36.25982465
      0.75000000	     -6.18694515	    -12.62905520	    -21.75411516	     26.57716438	    -30.16833447	    -22.20974715	    -10.59242867	     -6.22736823	    -57.59699209	     -0.96435482	      1.60243210	     32.95294382	     31.59597464	      8.94391522	      6.68956707	    -23.52909972
      0.76600000	      0.15280906	    -13.73093958	    -31.69628413	     11.80110728	    -21.59717497	    -17.05518959	    -19.61195339	     -8.58966859	    -61.01960915	      2.50817119	      1.19001575	     23.78709470	     35.83290037	      5.65334842	      1.31168736	    -11.92214772
      0.78200000	     14.52809457	    -12.85028828	    -30.61016879	     -1.24680373	      3.40263004	    -12.64809903	    -23.13627313	     -8.39979734	    -58.08656266	      7.05141961	     -0.29559911	     20.66543266	     39.28510026	      5.69294343	     -2.93315994	     -1.33035497
      0.79800000	     28.77682438	     -8.92064692	    -32.47622726	    -14.14229926	     14.09094757	     -0.50807726	    -23.81022757	     -7.61890371	    -54.47395495	      8.33276769	     -0.56918352	     15.12507679	     39.94286740	      3.56340843	     -7.64268794	      0.96808143
      0.81400000	     36.82311092	     -3.36350994	    -41.15896705	    -28.55299061	     11.48917310	     21.84920196	    -23.92904064	     -7.29192847	    -51.39549717	      3.85703637	     -0.31983993	      5.23260593	     38.00619264	      0.34220263	    -13.06500404	      0.51193018
      0.83000000	     40.26846800	      1.05160298	    -42.97290201	    -30.88566863	      4.97580847	     44.47963740	    -25.85340904	     -7.16652899	    -45.17779556	     -0.78217392	     -0.33349242	      0.35805070	     35.75809177	      0.26890321	    -18.31883590	      1.15788249
      0.84600000	     38.95259173	      3.08706445	    -42.48683092	    -24.92667590	      1.40101497	     60.17655353	    -28.01838194	     -6.91824483	    -38.75244152	     -4.84107349	     -0.81656435	     -1.46348942	     31.64931063	      0.48435194	    -23.72563200	      0.98428204
      0.86200000	     32.68353825	      2.93993770	    -40.01937349	    -15.77381083	      3.23078569	     66.29796075	    -30.34529258	     -6.78242250	    -31.54358348	     -7.74252381	     -1.39286301	     -1.51359803	     27.01512124	      0.76149358	    -28.19706879	      0.81100962
      0.87800000	     23.90431807	      0.95457766	    -37.84600961	     -7.81254210	      5.12668052	     61.93054042	    -32.18522277	     -7.03156119	    -25.90960787	     -8.83204655	     -1.84223392	     -0.64805260	     21.45781914	      1.02652891	    -32.40641309	      0.66133840
      0.89400000	     16.67502125	     -1.18328262	    -36.58810131	     -2.46969197	     -0.80815524	     48.43960027	    -32.07715008	     -7.03947807	    -23.06072431	     -8.06760349	     -1.93236348	      0.37279275	     14.88099707	      1.21068913	    -37.71021525	      0.55194879
      0.91000000	     11.78891388	     -2.23020085	    -35.40105148	     -0.51956072	    -11.06031815	     30.15297361	    -30.51146532	     -6.59137197	    -21.79532461	     -5.81182072	     -1.51520416	      1.07011075	      8.20967762	      1.24288184	    -43.56235352	      0.48974563
      0.92600000	      5.03974961	     -2.97105580	    -34.30393023	     -2.51144411	    -14.94621330	     13.15968959	    -31.39840259	     -7.23176811	    -20.84558589	     -2.61100584	     -0.58152156	      1.32508779	      2.20317491	      1.08395881	    -48.59315982	      0.47308263
      0.94200000	     -1.43745405	     -2.09024739	    -30.92094996	     -3.62383547	    -12.26466058	     -2.74459470	    -32.89834906	     -7.54673826	    -18.17227060	      0.93838604	      0.72966549	      1.34856107	     -2.43805350	      0.75458670	    -53.63458636	      0.49583803
      0.95800000	     -5.18882429	     -0.22700012	    -27.68046299	     -3.58607599	     -9.58424299	    -18.69093222	    -32.63251935	     -7.19214056	    -16.29189591	      4.25760681	      2.16056445	      1.49548959	     -7.21976806	      0.31308004	    -59.98960879	      0.55033943
      0.97400000	     -8.27855194	      0.26870156	    -27.33488499	     -3.81788544	     -9.94987850	    -33.59123790	    -31.98397118	     -7.46304102	    -17.05070500	      6.85869983	      3.39349565	      2.05367844	    -12.82419985	     -0.18291085	    -67.19858656	      0.62899885
      0.99000000	     -9.89710390	      0.06221613	    -26.69049612	      0.19345115	    -12.71763884	    -48.50031199	    -29.79176415	     -7.03271443	    -17.02212776	      8.43623675	      4.12998906	      3.11909252	    -17.58995535	     -0.70013134	    -74.66404862	      0.72528225
      1.00600000	    -12.10824283	     -1.06286397	    -24.26450796	      8.84240980	    -13.82736120	    -60.66100165	    -27.97344704	     -6.15860749	    -14.10139997	      8.91069094	      4.17659606	      4.51499171	    -19.87424938	     -1.25392041	    -80.27765995	      0.83276423
      1.02200000	    -15.77412849	     -3.88965519	    -24.17466945	     16.64921751	    -13.23320465	    -66.23556238	    -28.28565859	     -6.06429297	    -12.09877265	      8.37348631	      3.50640376	      5.83438398	    -21.69195647	     -1.90461035	    -84.04352837	      0.94386145
      1.03800000	    -17.22791326	     -6.62166349	    -26.30412842	     22.58328807	    -14.60438062	    -64.87112901	    -28.80835343	     -5.72924664	    -11.91959413	      6.97688686	      2.26103609	      6.67508107	    -24.42707887	     -2.70054699	    -87.92782258	      1.05022268
      1.05400000	    -16.71167743	     -8.33090190	    -27.80646546	     26.28819535	    -14.24185582	    -55.20026047	    -30.28626659	     -5.19347038	    -11.32255667	      4.85819082	      0.68617530	      6.83814117	    -26.86924478	     -3.63230669	    -91.30570992	      1.14241746
      1.07000000	    -15.03897297	     -9.52533212	    -28.88301446	     24.67474584	     -8.64033900	    -37.45094944	    -33.34791852	     -5.42682639	    -10.78058422	      2.16275999	     -0.95867049	      6.27456040	    -29.00082329	     -4.65674019	    -93.56308231	      1.20707822
      1.08600000	     -9.41102196	     -9.29868750	    -28.58655275	     18.52280337	     -2.52725786	    -16.00632068	    -35.50939396	     -5.50583311	     -9.89274505	     -0.82748244	     -2.44034249	      4.85938255	    -31.22326685	     -5.78087694	    -96.41455261	      1.22405062
      1.10200000	      0.06271703	     -6.94506802	    -26.17340028	      9.83165104	      0.70597952	      6.54538425	    -36.87070219	     -4.71805888	     -6.97462846	     -3.57490324	     -3.51016330	      2.24722532	    -32.67608107	     -7.13828045	   -100.14800175	      1.16801916
      1.11800000	     11.04089366	     -3.38703114	    -24.70700708	     -1.56706109	      4.21356374	     28.67840833	    -39.06001128	     -3.87439039	     -2.68600029	     -5.36063712	     -3.87195315	     -1.90700647	    -32.93197984	     -8.92772625	   -103.21693975	      1.01827418
      1.13400000	     24.65601533	      0.14014884	    -30.06006147	    -15.42501209	      8.22394747	     46.25052021	    -40.20099349	     -3.78060313	     -1.68512712	     -5.59613416	     -3.28956920	     -7.39946109	    -35.21496384	    -11.18723364	   -107.60791376	      0.77439794
      1.15000000	     38.78111396	      3.81027704	    -39.18410027	    -26.21688824	     13.45337406	     57.31243541	    -40.49144330	     -3.78877334	     -1.72517485	     -4.19200766	     -1.79834121	    -13.16707122	    -38.13660980	    -13.61283986	   -112.73016041	      0.46685026
      1.16600000	     50.27706546	      7.17790343	    -47.26193424	    -29.81444650	     19.32680165	     61.42183749	    -40.68360166	     -3.53629151	     -0.18726112	     -1.68526339	      0.19863839	    -17.65272071	    -39.70212172	    -15.62115297	   -117.29308780	      0.15279330
      1.18200000	     59.36146420	      9.15383475	    -55.57925139	    -28.20724003	     23.42681275	     57.28718367	    -39.12308546	     -3.08983097	     -0.62767846	      1.03266493	      2.09469038	    -19.54612015	    -42.20984420	    -16.59994579	   -122.76999853	     -0.10096919
      1.19800000	     63.21962382	      9.39442832	    -60.26671137	    -21.07808626	     27.60679944	     48.65985527	    -37.46881727	     -2.65295253	     -0.66690132	      3.19958903	      3.39388571	    -18.30183733	    -43.91990588	    -16.16133442	   -128.03226851	     -0.23917637
      1.21400000	     61.28063867	      8.80089680	    -57.32920903	    -10.08126465	     34.70323330	     39.74402033	    -36.55603097	     -1.78023961	      2.78157276	      4.52118517	      3.93729239	    -14.19439518	    -42.37658799	    -14.27755848	   -131.05529325	     -0.23518600
      1.23000000	     55.22386498	      7.35452567	    -46.42030429	      0.91326520	     42.82865867	     33.95130789	    -35.74164670	     -0.94011458	      7.54933816	      4.39723340	      3.65959826	     -6.49103543	    -39.20447139	    -10.19805833	   -132.86905544	      0.46119375
      1.24600000	     49.54333018	      7.54567543	    -41.31928960	     -1.18122515	     38.96991179	     29.51732094	    -33.63095834	      0.05971599	     13.40754791	      3.97222352	      3.21399208	    -10.20791174	    -34.48022956	    -11.43329092	   -132.96016466	      0.96192230
      1.26200000	     36.75749045	      7.53539248	    -50.09947465	    -20.66809461	      5.78956118	     34.55732790	    -31.04880869	     -0.14853528	     17.13645898	     -3.21021874	      0.69020696	    -31.97418915	    -29.81534174	    -19.55085407	   -130.84109691	      2.93865933
      1.27800000	     19.75533595	      4.68152200	    -45.32966561	    -26.44527428	    -44.08602469	     46.80260794	    -24.93266018	      0.06530056	     18.75153413	    -16.68098146	     -4.44759414	    -43.83926261	    -26.22654147	    -19.27258603	   -128.01429556	      7.76634796
      1.29400000	     15.66535923	      1.34302823	     -9.35851298	     -3.28050174	    -62.25604788	     47.88585448	    -17.07526771	      1.02548781	     26.48254962	    -18.46291980	     -7.02721660	    -29.38735320	    -17.32700594	     -3.88788508	   -118.17511873	     13.58787081
      1.31000000	     15.19624526	     -0.62275921	      9.35831219	      6.06821540	    -49.44846737	     41.67627738	    -12.12829780	     -1.02127544	     33.19597952	    -13.81069655	     -6.67921905	    -24.89008049	     -6.34285165	      7.10351745	    -99.50208586	     17.52122426
      1.32600000	     15.11970675	     -1.88343244	      8.46145165	      9.75816865	    -38.51241164	     29.82750010	     -5.00180098	     -3.42365231	     36.83100069	     -9.04142387	     -6.16362269	    -32.64825661	      1.63618220	     13.22785289	    -80.23953083	     19.70836304
      1.34200000	     17.83703585	     -2.54808919	      6.43609678	     20.86224288	    -29.45000304	     11.27224853	      2.76292339	     -3.85671193	     38.86658010	      0.48180377	     -5.12091463	    -36.76431970	      6.98219685	     21.99134525	    -61.69428522	     20.90616250
      1.35800000	     14.52260022	     -2.71247006	     -9.30393757	     15.12447034	    -11.02518188	     -4.30134424	      2.97751687	     -4.55620611	     32.17035951	     12.95702568	     -2.81778212	    -42.41762400	      7.51897362	     29.67405692	    -41.92642580	     21.58359238
      1.37400000	     10.72943109	     -1.23477662	    -21.56891654	     11.28107070	      1.73875296	    -21.56037394	      0.07644793	     -2.95756643	     25.23919001	     29.50010660	      0.27270299	    -44.81712773	      6.09761817	     37.20373476	    -24.48403111	     19.62071580
      1.39000000	      3.63009832	      0.03716973	    -30.14457134	      6.86069415	      5.94578452	    -34.93419518	     -2.55962998	     -0.35728881	     19.24283631	     41.82364622	      2.06549124	    -46.02764471	      3.24409322	     41.94871610	    -12.38561295	     14.47102165
      1.40600000	    -11.43038726	     -2.22302270	    -33.78717570	     -5.08228887	     12.50062429	    -36.39742457	     -6.50502559	     -0.35952889	     15.43574442	     44.83864495	      1.18745032	    -44.56932687	      2.39274077	     45.01569830	     -2.70017108	     10.52413735
      1.42200000	    -18.97371340	     -4.63771343	    -36.40229302	    -17.12715499	     10.74480992	    -38.80141617	     -4.40842885	     -0.28745557	      9.92828109	     44.31325824	     -0.38731945	    -40.60544956	      0.99908898	     45.83409922	      0.99272184	      6.26534755
      1.43800000	    -14.76683361	     -5.50255587	    -42.20969044	    -27.59617814	      2.76361546	    -45.35486969	      1.29178898	     -0.12931603	      1.99015908	     46.33153654	     -0.61813849	    -36.67141357	     -0.98200504	     43.36804276	      1.29351777	      0.85931356
      1.45400000	     -8.04438100	     -5.21933942	    -41.48562924	    -26.13967761	     -1.77278182	    -46.96861992	      4.40121322	     -0.12084085	     -0.76282799	     49.05980130	     -0.92236895	    -30.60132924	     -0.68643059	     39.75140788	      1.12087034	     -4.29617051
      1.47000000	      0.63026331	     -3.74009085	    -39.69633729	    -17.59990658	     -1.75130065	    -44.85397519	      6.72785828	      0.01394627	     -1.24845526	     50.79582928	     -0.54534420	    -25.25774363	     -0.07382715	     33.81944509	      0.92395876	    -10.67871396
      1.48600000	      8.82679512	     -2.06257216	    -37.89920620	     -7.86040228	      2.67200841	    -38.78889694	      7.66942979	      0.22930696	     -0.48201282	     51.15964260	      0.06404868	    -20.98108642	      0.58121044	     27.14957370	      0.72920199	    -16.36182783
      1.50200000	     13.29360218	     -1.60581520	    -35.63919162	     -0.00086029	      7.84740314	    -28.09513819	      7.13341529	      0.39189937	      0.69289524	     49.14178509	     -0.07054173	    -17.19505484	      1.09740618	     21.53341180	      0.56503496	    -20.14368494
      1.51800000	     14.12426906	     -2.18638844	    -33.19492765	      5.52538931	      9.30699458	    -15.73733305	      5.41491347	      0.35437281	      1.74917169	     45.97809189	     -0.25870874	    -14.15113231	      1.38887122	     16.78410857	      0.45450491	    -23.39009342
      1.53400000	     12.91438998	     -3.87498428	    -30.82167456	      8.90949271	      7.73667283	     -4.81579445	      3.01645395	      0.02102003	      2.44530437	     42.96526682	     -0.43184657	    -11.71005114	      1.44171700	     12.36830515	      0.40846738	    -27.29327368
      1.55000000	     12.97536650	     -6.00827734	    -28.75968357	      9.07838030	      7.47539431	      2.91941136	      0.46485351	     -0.61187211	      2.73956961	     42.08384458	     -0.29767886	     -9.30652642	      1.28782987	      8.79405954	      0.42361456	    -30.72630098
      1.56600000	     14.53531036	     -8.23636228	    -28.41421754	      6.75551439	      7.43485313	      8.75408262	     -1.85041471	     -1.44895758	      2.71316714	     42.60952720	     -0.11244265	     -8.26556999	      0.98267988	      4.73349118	      0.48593069	    -34.87587496
      1.58200000	     17.63776759	     -9.59281226	    -29.22650827	      4.51033777	      4.98477479	     13.67878393	     -3.76035537	     -2.31710395	      2.55292306	     44.19217046	      0.52708092	     -8.43085856	      0.59287440	     -0.11388712	      0.57800326	    -40.40331697
      1.59800000	     20.59482493	    -10.46722593	    -28.35121856	      3.22600067	      3.07962986	     21.19124428	     -5.27451245	     -3.00498114	      2.50138109	     45.04884982	      0.32594330	     -7.17800530	      0.17047751	     -2.97942056	      0.68552887	    -43.88716278
